[{"OBJECT_NAME":"KUIPER-00132","OBJECT_ID":"2025-217B","EPOCH":"2026-03-09T02:22:40.024704","MEAN_MOTION":15.39752084,"ECCENTRICITY":0.00062861,"INCLINATION":51.8618,"RA_OF_ASC_NODE":6.3682,"ARG_OF_PERICENTER":331.624,"MEAN_ANOMALY":28.4404,"EPHEMERIS_TYPE":0,"CLASSIFICATION_TYPE":"U","NORAD_CAT_ID":65763,"ELEMENT_SET_NO":999,"REV_AT_EPOCH":2533,"BSTAR":0.00094024586,"MEAN_MOTION_DOT":0.00037616,"MEAN_MOTION_DDOT":0},{"OBJECT_NAME":"STARLINK-36195","OBJECT_ID":"2025-299Y","EPOCH":"2026-03-09T07:55:30.364320","MEAN_MOTION":15.40727297,"ECCENTRICITY":0.00011668,"INCLINATION":43.0011,"RA_OF_ASC_NODE":170.8185,"ARG_OF_PERICENTER":263.7182,"MEAN_ANOMALY":96.3541,"EPHEMERIS_TYPE":0,"CLASSIFICATION_TYPE":"U","NORAD_CAT_ID":67124,"ELEMENT_SET_NO":999,"REV_AT_EPOCH":1306,"BSTAR":0.0012615233,"MEAN_MOTION_DOT":0.00052806,"MEAN_MOTION_DDOT":0}]
