KUIPER-00132            
1 65763U 25217B   26068.09907436  .00037616  00000+0  94025-3 0  9999
2 65763  51.8618   6.3682 0006286 331.6240  28.4404 15.39752084 25333
STARLINK-36195          
1 67124U 25299Y   26068.33021255  .00052806  00000+0  12615-2 0  9997
2 67124  43.0011 170.8185 0001166 263.7182  96.3541 15.40727297 13066
